{
    "links": {
        "self": "http://www.neowsapp.com/rest/v1/neo/3788082?api_key=iIulBulltgU6a56xZRHN4H3l9WmuAYTsLGpBGhQ2"
    },
    "id": "3788082",
    "neo_reference_id": "3788082",
    "name": "(2017 UJ7)",
    "designation": "2017 UJ7",
    "nasa_jpl_url": "http://ssd.jpl.nasa.gov/sbdb.cgi?sstr=3788082",
    "absolute_magnitude_h": 25.4,
    "estimated_diameter": {
        "kilometers": {
            "estimated_diameter_min": 0.022108281,
            "estimated_diameter_max": 0.0494356193
        },
        "meters": {
            "estimated_diameter_min": 22.1082810359,
            "estimated_diameter_max": 49.435619262
        },
        "miles": {
            "estimated_diameter_min": 0.0137374447,
            "estimated_diameter_max": 0.0307178602
        },
        "feet": {
            "estimated_diameter_min": 72.5337327539,
            "estimated_diameter_max": 162.1903570994
        }
    },
    "is_potentially_hazardous_asteroid": false,
    "close_approach_data": [
        {
            "close_approach_date": "2017-11-05",
            "close_approach_date_full": "2017-Nov-05 09:58",
            "epoch_date_close_approach": 1509875880000,
            "relative_velocity": {
                "kilometers_per_second": "13.025043892",
                "kilometers_per_hour": "46890.1580112155",
                "miles_per_hour": "29135.7206820244"
            },
            "miss_distance": {
                "astronomical": "0.042950703",
                "lunar": "16.707823467",
                "kilometers": "6425333.68380261",
                "miles": "3992517.215631618"
            },
            "orbiting_body": "Earth"
        }
    ],
    "orbital_data": {
        "orbit_id": "1",
        "orbit_determination_date": "2017-10-28 19:31:07",
        "first_observation_date": "2017-10-18",
        "last_observation_date": "2017-10-28",
        "data_arc_in_days": 10,
        "observations_used": 41,
        "orbit_uncertainty": "8",
        "minimum_orbit_intersection": ".0344071",
        "jupiter_tisserand_invariant": "3.188",
        "epoch_osculation": "2458049.5",
        "eccentricity": ".645230656148716",
        "semi_major_axis": "2.415104891544516",
        "inclination": "6.908627450730799",
        "ascending_node_longitude": "204.119701154927",
        "orbital_period": "1370.889415141588",
        "perihelion_distance": ".8568051777052745",
        "perihelion_argument": "246.8876495742373",
        "aphelion_distance": "3.973404605383758",
        "perihelion_time": "2458097.144292324472",
        "mean_anomaly": "347.4884545409971",
        "mean_motion": ".2626032384696899",
        "equinox": "J2000",
        "orbit_class": {
            "orbit_class_type": "APO",
            "orbit_class_description": "Near-Earth asteroid orbits which cross the Earth’s orbit similar to that of 1862 Apollo",
            "orbit_class_range": "a (semi-major axis) > 1.0 AU; q (perihelion) < 1.017 AU"
        }
    },
    "is_sentry_object": false
}